{"type": "FeatureCollection", "features": [ {"type": "Feature", "properties": {"norad_id": 40315, "name": "COSMOS 2501 (702K)", "group": "gnss", "lat": -12.13279883222252, "lon": 22.483296218730214, "alt_km": 19081.549521059595, "timestamp": "2025-12-26T09:30:53.879781+00:00", "meta": {"OBJECT_NAME": "COSMOS 2501 (702K)", "OBJECT_ID": "2014-075A", "EPOCH": "2025-12-25T04:55:56.926272", "MEAN_MOTION": 2.13101331, "ECCENTRICITY": 0.00201021, "INCLINATION": 63.6163, "RA_OF_ASC_NODE": 196.393, "ARG_OF_PERICENTER": 203.9317, "MEAN_ANOMALY": 156.0272, "EPHEMERIS_TYPE": 0, "CLASSIFICATION_TYPE": "U", "NORAD_CAT_ID": 40315, "ELEMENT_SET_NO": 999, "REV_AT_EPOCH": 8614, "BSTAR": 0, "MEAN_MOTION_DOT": 1.04e-06, "MEAN_MOTION_DDOT": 0}, "tle": {"line1": "1 40315U 14075A   25359.20551998  .00000104  00000+0  00000+0 0  9996", "line2": "2 40315  63.6163 196.3930 0020102 203.9317 156.0272  2.13101331 86148"}}, "geometry": {"type": "Point", "coordinates": [22.483296218730214, -12.13279883222252]}}, {"type": "Feature", "properties": {"norad_id": 40534, "name": "GPS BIIF-9  (PRN 26)", "group": "gnss", "lat": -48.66469359555933, "lon": 89.67422422440274, "alt_km": 20432.336087365995, "timestamp": "2025-12-26T09:30:53.879792+00:00", "meta": {"OBJECT_NAME": "GPS BIIF-9  (PRN 26)", "OBJECT_ID": "2015-013A", "EPOCH": "2025-12-26T01:13:12.989856", "MEAN_MOTION": 2.00561708, "ECCENTRICITY": 0.0107532, "INCLINATION": 53.196, "RA_OF_ASC_NODE": 211.3388, "ARG_OF_PERICENTER": 38.7958, "MEAN_ANOMALY": 322.0404, "EPHEMERIS_TYPE": 0, "CLASSIFICATION_TYPE": "U", "NORAD_CAT_ID": 40534, "ELEMENT_SET_NO": 999, "REV_AT_EPOCH": 7835, "BSTAR": 0, "MEAN_MOTION_DOT": 8.5e-07, "MEAN_MOTION_DDOT": 0}, "tle": {"line1": "1 40534U 15013A   25360.05084479  .00000085  00000+0  00000+0 0  9990", "line2": "2 40534  53.1960 211.3388 0107532  38.7958 322.0404  2.00561708 78353"}}, "geometry": {"type": "Point", "coordinates": [89.67422422440274, -48.66469359555933]}}, {"type": "Feature", "properties": {"norad_id": 40544, "name": "GSAT0203 (GALILEO 7)", "group": "gnss", "lat": 33.57383442786324, "lon": 140.58473738103768, "alt_km": 23231.880423926916, "timestamp": "2025-12-26T09:30:53.879805+00:00", "meta": {"OBJECT_NAME": "GSAT0203 (GALILEO 7)", "OBJECT_ID": "2015-017A", "EPOCH": "2025-12-24T23:56:01.378752", "MEAN_MOTION": 1.70475851, "ECCENTRICITY": 0.000645, "INCLINATION": 56.8433, "RA_OF_ASC_NODE": 346.3459, "ARG_OF_PERICENTER": 275.4973, "MEAN_ANOMALY": 84.4372, "EPHEMERIS_TYPE": 0, "CLASSIFICATION_TYPE": "U", "NORAD_CAT_ID": 40544, "ELEMENT_SET_NO": 999, "REV_AT_EPOCH": 6623, "BSTAR": 0, "MEAN_MOTION_DOT": -6.1e-07, "MEAN_MOTION_DDOT": 0}, "tle": {"line1": "1 40544U 15017A   25358.99723818 -.00000061  00000+0  00000+0 0  9997", "line2": "2 40544  56.8433 346.3459 0006450 275.4973  84.4372  1.70475851 66237"}}, "geometry": {"type": "Point", "coordinates": [140.58473738103768, 33.57383442786324]}}, {"type": "Feature", "properties": {"norad_id": 40545, "name": "GSAT0204 (GALILEO 8)", "group": "gnss", "lat": -15.052052825709422, "lon": -23.806030569871933, "alt_km": 23219.546166218886, "timestamp": "2025-12-26T09:30:53.879817+00:00", "meta": {"OBJECT_NAME": "GSAT0204 (GALILEO 8)", "OBJECT_ID": "2015-017B", "EPOCH": "2025-12-20T13:26:28.826304", "MEAN_MOTION": 1.70475697, "ECCENTRICITY": 0.0006133, "INCLINATION": 56.8522, "RA_OF_ASC_NODE": 346.4847, "ARG_OF_PERICENTER": 266.5447, "MEAN_ANOMALY": 93.3948, "EPHEMERIS_TYPE": 0, "CLASSIFICATION_TYPE": "U", "NORAD_CAT_ID": 40545, "ELEMENT_SET_NO": 999, "REV_AT_EPOCH": 2920, "BSTAR": 0, "MEAN_MOTION_DOT": -7e-07, "MEAN_MOTION_DDOT": 0}, "tle": {"line1": "1 40545U 15017B   25354.56005586 -.00000070  00000+0  00000+0 0  9992", "line2": "2 40545  56.8522 346.4847 0006133 266.5447  93.3948  1.70475697 29206"}}, "geometry": {"type": "Point", "coordinates": [-23.806030569871933, -15.052052825709422]}}, {"type": "Feature", "properties": {"norad_id": 40549, "name": "BEIDOU-3S IGSO-1S (C31)", "group": "gnss", "lat": 25.880898355646174, "lon": -38.04458553551893, "alt_km": 35922.08806929793, "timestamp": "2025-12-26T09:30:53.879829+00:00", "meta": {"OBJECT_NAME": "BEIDOU-3S IGSO-1S (C31)", "OBJECT_ID": "2015-019A", "EPOCH": "2025-12-25T18:51:43.024032", "MEAN_MOTION": 1.00290186, "ECCENTRICITY": 0.00365496, "INCLINATION": 49.5274, "RA_OF_ASC_NODE": 297.5574, "ARG_OF_PERICENTER": 194.2723, "MEAN_ANOMALY": 340.4455, "EPHEMERIS_TYPE": 0, "CLASSIFICATION_TYPE": "U", "NORAD_CAT_ID": 40549, "ELEMENT_SET_NO": 999, "REV_AT_EPOCH": 3933, "BSTAR": 0, "MEAN_MOTION_DOT": -1.76e-06, "MEAN_MOTION_DDOT": 0}, "tle": {"line1": "1 40549U 15019A   25359.78591463 -.00000176  00000+0  00000+0 0  9998", "line2": "2 40549  49.5274 297.5574 0036549 194.2723 340.4455  1.00290186 39339"}}, "geometry": {"type": "Point", "coordinates": [-38.04458553551893, 25.880898355646174]}}, {"type": "Feature", "properties": {"norad_id": 40730, "name": "GPS BIIF-10 (PRN 08)", "group": "gnss", "lat": 34.97818277699309, "lon": 63.824930112786454, "alt_km": 20265.743555695764, "timestamp": "2025-12-26T09:30:53.879840+00:00", "meta": {"OBJECT_NAME": "GPS BIIF-10 (PRN 08)", "OBJECT_ID": "2015-033A", "EPOCH": "2025-12-24T17:11:33.292320", "MEAN_MOTION": 2.00564999, "ECCENTRICITY": 0.0111668, "INCLINATION": 54.1203, "RA_OF_ASC_NODE": 274.2801, "ARG_OF_PERICENTER": 27.125, "MEAN_ANOMALY": 333.5048, "EPHEMERIS_TYPE": 0, "CLASSIFICATION_TYPE": "U", "NORAD_CAT_ID": 40730, "ELEMENT_SET_NO": 999, "REV_AT_EPOCH": 7649, "BSTAR": 0, "MEAN_MOTION_DOT": -1.6e-07, "MEAN_MOTION_DDOT": 0}, "tle": {"line1": "1 40730U 15033A   25358.71635755 -.00000016  00000+0  00000+0 0  9994", "line2": "2 40730  54.1203 274.2801 0111668  27.1250 333.5048  2.00564999 76491"}}, "geometry": {"type": "Point", "coordinates": [63.824930112786454, 34.97818277699309]}}, {"type": "Feature", "properties": {"norad_id": 40748, "name": "BEIDOU-3S M2S (C58)", "group": "gnss", "lat": -15.74257519838681, "lon": -63.38883830470377, "alt_km": 21518.77351297596, "timestamp": "2025-12-26T09:30:53.879854+00:00", "meta": {"OBJECT_NAME": "BEIDOU-3S M2S (C58)", "OBJECT_ID": "2015-037A", "EPOCH": "2025-12-24T19:32:44.901312", "MEAN_MOTION": 1.86229543, "ECCENTRICITY": 0.00118109, "INCLINATION": 55.028, "RA_OF_ASC_NODE": 308.0499, "ARG_OF_PERICENTER": 271.2412, "MEAN_ANOMALY": 88.6304, "EPHEMERIS_TYPE": 0, "CLASSIFICATION_TYPE": "U", "NORAD_CAT_ID": 40748, "ELEMENT_SET_NO": 999, "REV_AT_EPOCH": 7087, "BSTAR": 0, "MEAN_MOTION_DOT": -5.3e-07, "MEAN_MOTION_DDOT": 0}, "tle": {"line1": "1 40748U 15037A   25358.81440858 -.00000053  00000+0  00000+0 0  9997", "line2": "2 40748  55.0280 308.0499 0011810 271.2412  88.6304  1.86229543 70879"}}, "geometry": {"type": "Point", "coordinates": [-63.38883830470377, -15.74257519838681]}}, {"type": "Feature", "properties": {"norad_id": 40749, "name": "BEIDOU-3S M1S (C57)", "group": "gnss", "lat": -6.221912644392455, "lon": 132.34095237046577, "alt_km": 21537.203788378312, "timestamp": "2025-12-26T09:30:53.879865+00:00", "meta": {"OBJECT_NAME": "BEIDOU-3S M1S (C57)", "OBJECT_ID": "2015-037B", "EPOCH": "2025-12-25T13:55:00.289344", "MEAN_MOTION": 1.8625384, "ECCENTRICITY": 0.0003723, "INCLINATION": 55.0236, "RA_OF_ASC_NODE": 308.0126, "ARG_OF_PERICENTER": 2.956, "MEAN_ANOMALY": 357.054, "EPHEMERIS_TYPE": 0, "CLASSIFICATION_TYPE": "U", "NORAD_CAT_ID": 40749, "ELEMENT_SET_NO": 999, "REV_AT_EPOCH": 7089, "BSTAR": 0, "MEAN_MOTION_DOT": -5.4e-07, "MEAN_MOTION_DDOT": 0}, "tle": {"line1": "1 40749U 15037B   25359.57986446 -.00000054  00000+0  00000+0 0  9991", "line2": "2 40749  55.0236 308.0126 0003723   2.9560 357.0540  1.86253840 70899"}}, "geometry": {"type": "Point", "coordinates": [132.34095237046577, -6.221912644392455]}}, {"type": "Feature", "properties": {"norad_id": 40889, "name": "GSAT0205 (GALILEO 9)", "group": "gnss", "lat": 42.69186150189346, "lon": 6.138992486618731, "alt_km": 23214.39908772474, "timestamp": "2025-12-26T09:30:53.879876+00:00", "meta": {"OBJECT_NAME": "GSAT0205 (GALILEO 9)", "OBJECT_ID": "2015-045A", "EPOCH": "2025-12-23T06:16:38.782272", "MEAN_MOTION": 1.70473104, "ECCENTRICITY": 0.00062228, "INCLINATION": 55.0001, "RA_OF_ASC_NODE": 226.4673, "ARG_OF_PERICENTER": 42.5636, "MEAN_ANOMALY": 317.5856, "EPHEMERIS_TYPE": 0, "CLASSIFICATION_TYPE": "U", "NORAD_CAT_ID": 40889, "ELEMENT_SET_NO": 999, "REV_AT_EPOCH": 6401, "BSTAR": 0, "MEAN_MOTION_DOT": 7.3e-07, "MEAN_MOTION_DDOT": 0}, "tle": {"line1": "1 40889U 15045A   25357.26155998  .00000073  00000+0  00000+0 0  9999", "line2": "2 40889  55.0001 226.4673 0006222  42.5636 317.5856  1.70473104 64013"}}, "geometry": {"type": "Point", "coordinates": [6.138992486618731, 42.69186150189346]}}, {"type": "Feature", "properties": {"norad_id": 40890, "name": "GSAT0206 (GALILEO 10)", "group": "gnss", "lat": -9.356643966140606, "lon": -140.23866609045754, "alt_km": 23216.39899536409, "timestamp": "2025-12-26T09:30:53.879887+00:00", "meta": {"OBJECT_NAME": "GSAT0206 (GALILEO 10)", "OBJECT_ID": "2015-045B", "EPOCH": "2025-12-25T05:48:23.394816", "MEAN_MOTION": 1.7047315, "ECCENTRICITY": 0.0004109, "INCLINATION": 54.9985, "RA_OF_ASC_NODE": 226.4076, "ARG_OF_PERICENTER": 41.5093, "MEAN_ANOMALY": 318.6128, "EPHEMERIS_TYPE": 0, "CLASSIFICATION_TYPE": "U", "NORAD_CAT_ID": 40890, "ELEMENT_SET_NO": 999, "REV_AT_EPOCH": 6407, "BSTAR": 0, "MEAN_MOTION_DOT": 7e-07, "MEAN_MOTION_DDOT": 0}, "tle": {"line1": "1 40890U 15045B   25359.24193744  .00000070  00000+0  00000+0 0  9999", "line2": "2 40890  54.9985 226.4076 0004109  41.5093 318.6128  1.70473150 64070"}}, "geometry": {"type": "Point", "coordinates": [-140.23866609045754, -9.356643966140606]}}]}